{"type": "FeatureCollection", "features": [{"type": "Feature", "id": 1, "properties": {"id": 1}, "geometry": {"type": "Polygon", "coordinates": [[[1673.497555798955, 2195.327452634069], [1758.576773826101, 2286.814305693766], [1780.526923315627, 2296.384378567061], [1833.244343283513, 2296.41675760327], [1853.692690746337, 2288.385338746159], [1935.282390577342, 2212.510088603262], [1683.614995951789, 1941.888678511334], [1343.459201454137, 1972.19569843539], [1373.135623931037, 2193.346735402808], [1383.520383925905, 2202.005528119251], [1657.962451034973, 2188.993411992373], [1673.497555798955, 2195.327452634069]]]}}, {"type": "Feature", "id": 2, "properties": {"id": 2}, "geometry": {"type": "Polygon", "coordinates": [[[1555.425748812682, 2232.474043950091], [1563.041493856288, 2304.750661966592], [1737.11988397101, 2304.857580903449], [1658.706015564407, 2220.538069945222], [1650.909559296588, 2217.359264806034], [1564.897095497905, 2221.437371996731], [1555.425748812682, 2232.474043950091]]]}}, {"type": "Feature", "id": 3, "properties": {"id": 3}, "geometry": {"type": "Polygon", "coordinates": [[[1787.86783965179, 2399.930552987598], [1779.736878582899, 2412.710053350937], [1740.15612884111, 2418.486232873588], [1725.761831549519, 2319.850607617639], [1751.077275891419, 2319.866156362049], [1774.846910433838, 2356.705189496349], [1787.86783965179, 2399.930552987598]]]}}, {"type": "Feature", "id": 4, "properties": {"id": 4}, "geometry": {"type": "Polygon", "coordinates": [[[1710.470566534769, 2422.818367515578], [1680.785004228425, 2427.150502157568], [1665.12085952649, 2319.813361936228], [1695.441345538005, 2319.831984776934], [1710.470566534769, 2422.818367515578]]]}}, {"type": "Feature", "id": 5, "properties": {"id": 5}, "geometry": {"type": "Polygon", "coordinates": [[[1680.785004228425, 2427.150502157568], [1651.099441922086, 2431.482636799555], [1634.800373514977, 2319.794739095522], [1665.12085952649, 2319.813361936228], [1680.785004228425, 2427.150502157568]]]}}, {"type": "Feature", "id": 6, "properties": {"id": 6}, "geometry": {"type": "Polygon", "coordinates": [[[1642.928221427817, 2375.490084594364], [1571.592198596564, 2385.900440057394], [1568.446011921313, 2356.041807548869], [1638.596086785828, 2345.804522288021], [1642.928221427817, 2375.490084594364]]]}}, {"type": "Feature", "id": 7, "properties": {"id": 7}, "geometry": {"type": "Polygon", "coordinates": [[[1638.596086785828, 2345.804522288021], [1568.446011921313, 2356.041807548869], [1564.62213769299, 2319.751635627253], [1634.800373514977, 2319.794739095523], [1638.596086785828, 2345.804522288021]]]}}, {"type": "Feature", "id": 8, "properties": {"id": 8}, "geometry": {"type": "Polygon", "coordinates": [[[1587.824895012923, 2440.716548348631], [1576.435905673974, 2431.869253904662], [1574.738385271814, 2415.75907256592], [1640.404418089613, 2433.043405053276], [1587.824895012923, 2440.716548348631]]]}}, {"type": "Feature", "id": 9, "properties": {"id": 9}, "geometry": {"type": "Polygon", "coordinates": [[[1673.757244282817, 2553.881051016593], [1631.982888491416, 2558.28279049748], [1628.842541696547, 2528.447606012805], [1670.613565308386, 2524.046217641733], [1673.757244282817, 2553.881051016593]]]}}, {"type": "Feature", "id": 10, "properties": {"id": 10}, "geometry": {"type": "Polygon", "coordinates": [[[1631.982888491416, 2558.28279049748], [1590.219710833206, 2562.683352144999], [1587.076031858775, 2532.848518770137], [1628.842541696547, 2528.447606012805], [1631.982888491416, 2558.28279049748]]]}}, {"type": "Feature", "id": 11, "properties": {"id": 11}, "geometry": {"type": "Polygon", "coordinates": [[[1676.900923257247, 2583.715884391456], [1635.123235286284, 2588.117974982158], [1631.982888491416, 2558.28279049748], [1673.757244282817, 2553.881051016593], [1676.900923257247, 2583.715884391456]]]}}, {"type": "Feature", "id": 12, "properties": {"id": 12}, "geometry": {"type": "Polygon", "coordinates": [[[1635.123235286284, 2588.117974982158], [1593.363389807637, 2592.51818551986], [1590.219710833206, 2562.683352144999], [1631.982888491416, 2558.28279049748], [1635.123235286284, 2588.117974982158]]]}}, {"type": "Feature", "id": 13, "properties": {"id": 13}, "geometry": {"type": "Polygon", "coordinates": [[[1680.064673224265, 2613.741199913004], [1670.132848114664, 2624.789084298612], [1638.987408401137, 2624.829945122134], [1635.123235286284, 2588.117974982158], [1676.900923257247, 2583.715884391456], [1680.064673224265, 2613.741199913004]]]}}, {"type": "Feature", "id": 14, "properties": {"id": 14}, "geometry": {"type": "Polygon", "coordinates": [[[1638.987408401137, 2624.829945122134], [1605.787436972622, 2624.873501359772], [1595.82937316565, 2615.921402957118], [1593.363389807637, 2592.51818551986], [1635.123235286284, 2588.117974982158], [1638.987408401137, 2624.829945122134]]]}}, {"type": "Feature", "id": 15, "properties": {"id": 15}, "geometry": {"type": "Polygon", "coordinates": [[[1625.70219490168, 2498.612421528129], [1583.932352884344, 2503.013685395278], [1581.469804354373, 2479.643065918303], [1589.970703931997, 2468.699985491378], [1622.060796785151, 2464.016947943389], [1625.70219490168, 2498.612421528129]]]}}, {"type": "Feature", "id": 16, "properties": {"id": 16}, "geometry": {"type": "Polygon", "coordinates": [[[1670.613565308386, 2524.046217641733], [1628.842541696547, 2528.447606012805], [1625.70219490168, 2498.612421528129], [1667.469886333956, 2494.211384266873], [1670.613565308386, 2524.046217641733]]]}}, {"type": "Feature", "id": 17, "properties": {"id": 17}, "geometry": {"type": "Polygon", "coordinates": [[[1667.469886333956, 2494.211384266873], [1625.70219490168, 2498.612421528129], [1622.060796785151, 2464.016947943389], [1653.350420981682, 2459.450726036667], [1664.739410320632, 2468.298020480636], [1667.469886333956, 2494.211384266873]]]}}, {"type": "Feature", "id": 18, "properties": {"id": 18}, "geometry": {"type": "Polygon", "coordinates": [[[1651.099441922086, 2431.482636799555], [1640.404418089613, 2433.043405053276], [1574.738385271814, 2415.75907256592], [1571.592198596564, 2385.900440057394], [1642.928221427817, 2375.490084594364], [1651.099441922086, 2431.482636799555]]]}}, {"type": "Feature", "id": 19, "properties": {"id": 19}, "geometry": {"type": "Polygon", "coordinates": [[[1628.842541696547, 2528.447606012805], [1587.076031858775, 2532.848518770137], [1583.932352884344, 2503.013685395278], [1625.70219490168, 2498.612421528129], [1628.842541696547, 2528.447606012805]]]}}, {"type": "Feature", "id": 20, "properties": {"id": 20}, "geometry": {"type": "Polygon", "coordinates": [[[1750.107506042026, 2624.684162665979], [1718.391906471196, 2624.725771502742], [1708.433842664224, 2615.773673100089], [1704.613656813483, 2579.51850543034], [1750.048173389639, 2579.458898252508], [1750.107506042026, 2624.684162665979]]]}}, {"type": "Feature", "id": 21, "properties": {"id": 21}, "geometry": {"type": "Polygon", "coordinates": [[[1795.094347966931, 2614.625134202761], [1785.107475921486, 2624.638244945578], [1750.107506042026, 2624.684162665979], [1750.048173389639, 2579.458898252508], [1795.048134663229, 2579.399861183421], [1795.094347966931, 2614.625134202761]]]}}, {"type": "Feature", "id": 22, "properties": {"id": 22}, "geometry": {"type": "Polygon", "coordinates": [[[1795.048134663229, 2579.399861183421], [1750.048173389639, 2579.458898252508], [1750.008815343581, 2549.458924070112], [1795.00877661717, 2549.399887001023], [1795.048134663229, 2579.399861183421]]]}}, {"type": "Feature", "id": 23, "properties": {"id": 23}, "geometry": {"type": "Polygon", "coordinates": [[[1750.048173389639, 2579.458898252508], [1704.607376039955, 2579.458898252508], [1701.453008529278, 2549.52262618097], [1750.008815343581, 2549.458924070112], [1750.048173389639, 2579.458898252508]]]}}, {"type": "Feature", "id": 24, "properties": {"id": 24}, "geometry": {"type": "Polygon", "coordinates": [[[1795.00877661717, 2549.399887001023], [1750.008815343581, 2549.458924070112], [1749.969457297522, 2519.458949887719], [1794.969418571111, 2519.399912818627], [1795.00877661717, 2549.399887001023]]]}}, {"type": "Feature", "id": 25, "properties": {"id": 25}, "geometry": {"type": "Polygon", "coordinates": [[[1750.008815343581, 2549.458924070112], [1701.446296275048, 2549.458924070112], [1698.292360245073, 2519.5267469316], [1749.969457297522, 2519.458949887719], [1750.008815343581, 2549.458924070112]]]}}, {"type": "Feature", "id": 26, "properties": {"id": 26}, "geometry": {"type": "Polygon", "coordinates": [[[1794.969418571111, 2519.399912818627], [1749.969379844666, 2519.399912818627], [1749.921036593225, 2482.551124822914], [1794.936620199396, 2494.399934333308], [1794.969418571111, 2519.399912818627]]]}}, {"type": "Feature", "id": 27, "properties": {"id": 27}, "geometry": {"type": "Polygon", "coordinates": [[[1749.969457297522, 2519.458949887719], [1698.292360245073, 2519.5267469316], [1692.812357756235, 2467.51922247439], [1749.921036593225, 2482.551124822914], [1749.969457297522, 2519.458949887719]]]}}, {"type": "Feature", "id": 28, "properties": {"id": 28}, "geometry": {"type": "Polygon", "coordinates": [[[1794.936620199396, 2494.399934333308], [1749.921036593225, 2482.551124822914], [1692.812357756235, 2467.51922247439], [1700.885208768946, 2452.513781445631], [1794.911626635041, 2475.349032155917], [1794.936620199396, 2494.399934333308]]]}}, {"type": "Feature", "id": 29, "properties": {"id": 29}, "geometry": {"type": "Polygon", "coordinates": [[[1794.911626635041, 2475.349032155917], [1700.885208768946, 2452.513781445631], [1783.434791988532, 2440.466985583829], [1794.878828263326, 2450.349053670589], [1794.911626635041, 2475.349032155917]]]}}, {"type": "Feature", "id": 30, "properties": {"id": 30}, "geometry": {"type": "Polygon", "coordinates": [[[1924.252287478751, 2148.523947170143], [1896.261569899266, 2148.523947170143], [1881.460150384606, 2125.700107938957], [1772.621742897685, 2006.997916374855], [1724.723214929364, 1964.066395265676], [1698.24546091514, 1925.705283526281], [1959.461902389888, 1902.251997666575], [1924.252287478751, 2148.523947170143]]]}}, {"type": "Feature", "id": 31, "properties": {"id": 31}, "geometry": {"type": "Polygon", "coordinates": [[[2038.340547817396, 2170.610691907336], [2019.761062086535, 2187.888891609939], [2016.9851769727347, 2185.1832452445783], [2013.9574587850082, 2182.7627116267327], [2010.7070661046223, 2180.6506018183413], [2007.2653019899344, 2178.8672565914553], [2003.6653125108292, 2177.429850535485], [1999.9417675339444, 2176.3522266565155], [1996.130526832904, 2175.6447630615908], [1992.2682947390956, 2175.3142730118684], [1988.392266658893, 2175.363939307192], [1984.5397708615615, 2175.793283633987], [1980.7479089876172, 2176.5981711716827], [1977.0531987397492, 2177.770850413295], [1973.4912221973782, 2179.3000278166755], [1970.0962831417821, 2181.170976567496], [1966.9010766919284, 2183.365678406522], [1963.936374432607, 2185.862997155297], [1942.473737906581, 2162.783928968471], [1963.658083531249, 2016.300091648057], [2058.669657818672, 2030.040570221444], [2038.340547817396, 2170.610691907336]]]}}, {"type": "Feature", "id": 32, "properties": {"id": 32}, "geometry": {"type": "Polygon", "coordinates": [[[1569.126862962613, 2624.92159768651], [1545.193919171737, 2624.952996176997], [1505.126679205047, 2568.594942087104], [1520.490238505625, 2463.175371800097], [1551.39485954078, 2458.665334017241], [1569.126862962613, 2624.92159768651]]]}}, {"type": "Feature", "id": 33, "properties": {"id": 33}, "geometry": {"type": "Polygon", "coordinates": [[[1345.384369709982, 2197.07069689004], [1350.688735100721, 2236.599245438277], [1209.42742286393, 2243.296865268787], [1190.618769251329, 2103.133207313775], [1331.880088374728, 2096.435729076254], [1345.384369709982, 2197.07069689004]]]}}, {"type": "Feature", "id": 34, "properties": {"id": 34}, "geometry": {"type": "Polygon", "coordinates": [[[1285.902737992926, 2050.28352276238], [1320.350024879641, 2076.579610884031], [1321.498169595933, 2077.501534167792], [1322.5996946901887, 2078.478683745602], [1323.6519464919743, 2079.5087055785402], [1324.6523900345326, 2080.5891182537916], [1325.5986151617412, 2081.717318962588], [1326.4883423343892, 2082.8905897706036], [1327.3194281217868, 2084.106104165696], [1328.0898703654773, 2085.3609338672195], [1328.7978130026133, 2086.6520558805146], [1329.4415505373734, 2087.976359779562], [1330.0195321496512, 2089.3306552002728], [1330.5303654311183, 2090.7116795263564], [1330.9728197396553, 2092.1161057492486], [1331.3458291640786, 2093.5405504831647], [1331.648495092013, 2094.981582115974], [1331.880088374728, 2096.435729076254], [1190.618769251329, 2103.133207313775], [1173.06459148969, 1972.318006698918], [1343.459201454137, 1957.13627843593], [1343.459201454137, 1972.19569843539], [1349.019669276657, 2013.632742470314], [1344.1533077879524, 2010.4557585993834], [1338.87345696361, 2008.0272043118307], [1333.294409629199, 2006.3996504739187], [1327.5369353111796, 2005.60832871114], [1321.72566594137, 2005.670368749923], [1315.9863979520023, 2006.5844276107846], [1310.4433691628615, 2008.3307186797804], [1305.2165694076755, 2010.8714400289425], [1300.4191431165775, 2014.1515927138616], [1296.15494008088, 2018.1001713347387], [1292.5162674187131, 2022.6317010888613], [1289.5818914046777, 2027.6480880419535], [1287.4153324178685, 2033.040742565616], [1286.0634899174947, 2038.692929974848], [1285.55562721122, 2044.482297481448], [1285.902737992926, 2050.28352276238]]]}}, {"type": "Feature", "id": 35, "properties": {"id": 35}, "geometry": {"type": "Polygon", "coordinates": [[[2073.269865070397, 2032.15203754965], [2058.669657818672, 2030.040570221444], [1963.658083531249, 2016.300091648057], [1943.571704364624, 2013.395219640348], [1959.461902384799, 1902.25199770217], [1980.200516950308, 1758.371477212024], [2115.237011556817, 1741.960932870921], [2073.269865070397, 2032.15203754965]]]}}, {"type": "Feature", "id": 36, "properties": {"id": 36}, "geometry": {"type": "Polygon", "coordinates": [[[1551.39485954078, 2458.665334017241], [1520.490238505625, 2463.175371800097], [1508.574185020806, 2464.914330235405], [1534.515907703319, 2348.94852419618], [1521.822765061064, 2228.485271168365], [1350.688735100721, 2236.599245438277], [1345.384369709982, 2197.070696890039], [1346.0147475066315, 2200.538962115607], [1346.963801891947, 2203.933890040483], [1348.2233658455582, 2207.226265852591], [1349.7826002789727, 2210.3877572448055], [1351.6280873105848, 2213.3911582266164], [1353.7439457323067, 2216.2106232433566], [1356.1119676741803, 2218.8218895882924], [1358.7117752909157, 2221.2024861936325], [1361.5209961219955, 2223.331927003709], [1364.5154556163016, 2225.1918872662823], [1367.6693851645043, 2226.7663612248994], [1370.955643849008, 2228.041799855299], [1374.3459520031959, 2229.0072274605805], [1377.8111345701009, 2229.654336121787], [1381.3213721662949, 2229.9775571911164], [1384.846457690482, 2229.974109212523], [1516.871296938471, 2223.714418203694], [1517.8166893850919, 2223.7143328764796], [1518.7578650871533, 2223.803524710509], [1519.6864121278968, 2223.981196538706], [1520.5940314613567, 2224.2457603891053], [1521.4726110864854, 2224.594851677621], [1522.3142985495308, 2225.0253503419167], [1523.1115711266702, 2225.5334087274887], [1523.8573030596224, 2226.1144859767282], [1524.5448292433168, 2226.763388613603], [1525.168004796395, 2227.474316961226], [1525.7212599821257, 2228.2409169774473], [1526.1996499888671, 2229.0563370451787], [1526.5988991251556, 2229.913289209877], [1526.9154390344208, 2230.8041143168707], [1527.146440587775, 2231.720850466347], [1527.289839169829, 2232.655304174175], [1551.39485954078, 2458.665334017241]]]}}, {"type": "Feature", "id": 37, "properties": {"id": 37}, "geometry": {"type": "Polygon", "coordinates": [[[1883.781556357035, 2436.227923335073], [1839.860340970556, 2436.227923335065], [1839.8731047512965, 2434.5895672677407], [1839.9156906488151, 2432.951715028139], [1839.988084549969, 2431.3149094072687], [1840.0902624631199, 2429.679692849286], [1840.2221905260844, 2428.0466072717245], [1840.3838250173567, 2426.4161938859024], [1840.5751123705975, 2424.7889930175625], [1840.7959891923865, 2423.165543927805], [1841.046382283231, 2421.5463846343773], [1841.3262086618242, 2419.932051733368], [1841.6353755925468, 2418.3230802213816], [1841.9737806161984, 2416.7200033182344], [1842.3413115839537, 2415.1233522902457], [1842.7378466945295, 2413.533656274173], [1843.1632545345492, 2411.9514421018544], [1843.617394122094, 2410.377234125613], [1872.000138132744, 2315.252456561422], [1872.3010047146477, 2314.3020338676724], [1872.6332835957662, 2313.3621324142937], [1872.9966078575153, 2312.4337900864184], [1873.390576299484, 2311.518032005027], [1873.8147538824596, 2310.6158693949606], [1874.2686722088185, 2309.7282984682756], [1874.7518300397549, 2308.856299324179], [1875.2636938487724, 2308.0008348667534], [1875.8036984108305, 2307.1628497416723], [1876.3712474264935, 2306.343269293076], [1876.9657141803932, 2305.5429985417622], [1877.5864422332793, 2304.7629211858152], [1878.232746146891, 2304.0038986247864], [1878.9039122408526, 2303.2667690084927], [1879.5991993807522, 2302.5523463114914], [1880.317839796541, 2301.861419434249], [1894.481786714058, 2288.689499233495], [1904.760827694614, 2288.689499233495], [1883.781556357035, 2436.227923335073]]]}}, {"type": "Feature", "id": 38, "properties": {"id": 38}, "geometry": {"type": "Polygon", "coordinates": [[[1850.7076927027028, 2668.8225470468105], [1849.5007510888836, 2667.739264193007], [1848.354113682405, 2666.592341153489], [1847.271131479872, 2665.385129759611], [1846.2549694483987, 2664.12115803275], [1845.308597276134, 2662.8041198738206], [1844.4347806934807, 2661.437864268016], [1843.6360733903714, 2660.026384036318], [1842.9148095532248, 2658.57380416666], [1842.2730970433884, 2657.0843697588284], [1841.7128112370096, 2655.5624336183537], [1841.235589544332, 2654.0124435356274], [1840.8428266244364, 2652.438929287434], [1840.5356703094133, 2650.8464893988807], [1840.3150182498737, 2649.239777704415], [1840.181515291606, 2647.6234897471973], [1840.135551591043, 2646.00234905659], [1839.860340970556, 2436.227923335065], [1883.781556357035, 2436.227923335073], [1850.7076927027028, 2668.8225470468105]]]}}, {"type": "Feature", "id": 39, "properties": {"id": 39}, "geometry": {"type": "Polygon", "coordinates": [[[2037.44025960156, 2279.903759115215], [1904.760827694614, 2288.689499233495], [1894.481786714058, 2288.689499233495], [1924.5767930510242, 2260.702312877876], [1925.6793486934566, 2259.7263262560264], [1926.8284656530404, 2258.8056150939965], [1928.021375606369, 2257.94239746562], [1929.2552047288787, 2257.1387529377744], [1930.526980618142, 2256.396617560516], [1931.833639454648, 2255.717779202974], [1933.172033382809, 2255.1038732462093], [1934.5389380944232, 2254.556378643444], [1935.9310605963133, 2254.076614357132], [1937.345047143437, 2253.66573618146], [1938.7774913183512, 2253.324733957943], [1940.2249422375717, 2253.0544291908054], [1941.6839128650522, 2252.8554730679066], [1943.1508884127604, 2252.728344891974], [1944.6223348081098, 2252.6733509259175], [1946.094707207851, 2252.690623655019], [1989.403247325403, 2254.2623034072944], [1995.210793210088, 2254.045251680326], [2000.9236330768815, 2252.9784052474806], [2006.4181011950416, 2251.084858112228], [2011.5752589227168, 2248.405599851668], [2016.2834693693558, 2244.998628315969], [2020.4408139972531, 2240.937694150067], [2023.9572988501025, 2236.3107043149166], [2026.7568026503761, 2231.2178191672665], [2028.7787245951029, 2225.769284290409], [2029.979296180241, 2220.0830440102363], [2030.3325286566135, 2214.2821882567687], [2029.8307756078448, 2208.4922880388935], [2028.4848984721814, 2202.8386772112367], [2026.3240314251564, 2197.4437393747103], [2023.3949507126717, 2192.4242586411433], [2019.761062086535, 2187.888891609939], [2038.340547817396, 2170.610691907336], [2058.669657818672, 2030.040570221444], [2073.269865070397, 2032.15203754965], [2037.44025960156, 2279.903759115215]]]}}, {"type": "Feature", "id": 40, "properties": {"id": 40}, "geometry": {"type": "Polygon", "coordinates": [[[1343.459201454137, 1972.19569843539], [1343.459201454137, 1957.13627843593], [1698.128702956176, 1925.536123970381], [1724.723214929364, 1964.066395265676], [1772.621742897684, 2006.997916374855], [1881.460150384606, 2125.700107938957], [1896.261569899266, 2148.523947170143], [1924.252287478751, 2148.523947170143], [1943.571704364624, 2013.395219640348], [1963.658083531249, 2016.300091648057], [1942.473737906581, 2162.783928968471], [1963.936374432607, 2185.862997155297], [1935.282390577342, 2212.510088603262], [1683.614995951789, 1941.888678511334], [1343.459201454137, 1972.19569843539]]]}}, {"type": "Feature", "id": 41, "properties": {"id": 41}, "geometry": {"type": "Polygon", "coordinates": [[[1545.193919171737, 2624.952996176997], [1569.126862962613, 2624.92159768651], [1570.0669273462252, 2627.872828392207], [1571.244220446902, 2630.737695697805], [1572.6509206980231, 2633.497166322233], [1574.277682423714, 2636.1329072069584], [1576.1136979285884, 2638.6274073150857], [1578.1467693006919, 2640.964093969201], [1580.363389450608, 2643.127442955049], [1582.7488318483304, 2645.103081659553], [1585.2872483617148, 2646.877884557952], [1587.9617745465057, 2648.440060415675], [1590.754641688422, 2649.779230625615], [1593.6472948529288, 2650.886498160339], [1596.6205161584116, 2651.754506681155], [1599.6545524537619, 2652.37748941132], [1602.729246552126, 2652.7513074486997], [1605.824171148942, 2652.873477263338], [1787.252795735857, 2652.635454519743], [1787.8937396348308, 2652.675857828765], [1788.5242176783286, 2652.798082808531], [1789.133828453724, 2653.000113032838], [1789.7125148094924, 2653.278615475662], [1790.2507297746813, 2653.628995498292], [1790.7395940615938, 2654.045472650118], [1791.1710425532624, 2654.521176032541], [1791.5379573590085, 2655.048257652725], [1791.8342852429853, 2655.6180218971185], [1792.0551374884078, 2656.221068988732], [1792.1968705499414, 2656.8474500614666], [1792.2571461636749, 2657.4868312931276], [1792.2349699230049, 2658.128664389315], [1792.130707684018, 2658.762360605599], [1791.9460795297216, 2659.3774654370327], [1791.684131392698, 2659.96383109302], [1790.7352323659827, 2661.6349156058604], [1789.6812909146931, 2663.2418195324253], [1788.5266316332372, 2664.77794933023], [1787.275992387334, 2666.2370018613483], [1785.934504873325, 2667.6129902558177], [1784.507673561496, 2668.9002684773145], [1783.0013531098118, 2670.093554490303], [1781.4217243407409, 2671.187951933593], [1779.775268879741, 2672.1789702113756], [1778.0687425594735, 2673.062542919301], [1776.3091476988745, 2673.8350445299857], [1774.5037043708294, 2674.49330526949], [1772.659820776345, 2675.034624123722], [1770.7850628467847, 2675.4567799213933], [1768.8871231988965, 2675.7580404480636], [1766.973789570014, 2675.937169553861], [1743.959881428278, 2677.350051027193], [1460.987790388705, 2677.63708105458], [1508.574185020806, 2464.914330235405], [1520.490238505625, 2463.175371800097], [1505.126679205047, 2568.594942087104], [1545.193919171737, 2624.952996176997]]]}}]}